satname,norad_id,inclination_deg,eccentricity,mean_motion_rev_per_day,perigee_km,apogee_km,l1,l2
STARLINK-1265,45406,53.1594,0.0001572,15.30452306,473.3846041417846,475.5390612147785,1 45406U 20019AY  26081.24107732  .00022572  00000+0  76593-3 0  9994,2 45406  53.1594  71.0402 0001572  89.5947 270.5234 15.30452306331895
STARLINK-1278,45408,53.0439,0.0003304,15.5803001,391.12173944282586,395.5963440272044,1 45408U 20019BA  26081.23263049  .00049750  00000+0  65365-3 0  9991,2 45408  53.0439  69.5508 0003304  76.9122 283.2258 15.58030010331917
STARLINK-1296,45412,53.1614,0.0001899,15.30956716,471.65555986968593,474.25760521233497,1 45412U 20019BE  26081.23256087  .00026408  00000+0  87977-3 0  9998,2 45412  53.1614  70.9601 0001899  96.2535 263.8683 15.30956716331891
STARLINK-1298,45413,53.0307,0.0001218,16.11351122,242.3329270674949,243.94586999817784,1 45413U 20019BF  26081.45954878  .00812927  38601-3  77261-3 0  9992,2 45413  53.0307 347.6146 0001218 145.6187 214.4926 16.11351122333169
STARLINK-1309,45414,53.0668,0.0006684,15.57050583,391.67041465672446,400.7263461932762,1 45414U 20019BG  26081.21690406  .00056462  00000+0  76741-3 0  9995,2 45414  53.0668  62.9731 0006684  73.0935 287.0809 15.57050583331984
STARLINK-1316,45415,53.1605,0.0001367,15.30945471,472.05358155589056,473.9266797134069,1 45415U 20019BH  26081.27782600  .00014610  00000+0  49300-3 0  9990,2 45415  53.1605  70.8020 0001367 138.5279 221.5826 15.30945471331923
STARLINK-1286,45417,53.0486,0.0003727,15.51765309,409.04128235033113,414.10233129493736,1 45417U 20019BK  26081.23323025  .00042335  00000+0  70125-3 0  9994,2 45417  53.0486  70.4070 0003727  87.2963 272.8473 15.51765309332172
STARLINK-1308,45419,53.0534,0.0005112,15.52880062,404.85279915343017,411.79127487287224,1 45419U 20019BM  26081.24127750  .00045983  00000+0  73071-3 0  9999,2 45419  53.0534  91.7205 0005112  57.7918 302.3587 15.52880062331625
STARLINK-1329,45531,53.0473,0.0001139,15.61163546,383.5246932584869,385.0651752531094,1 45531U 20025A   26081.25002315  .01253093  00000+0  13227-1 0  9990,2 45531  53.0473  20.3811 0001139  80.0027 105.6956 15.61163546  5924
STARLINK-1338,45532,53.0497,0.000486,15.5678868,393.6654400625748,400.25083253505636,1 45532U 20025B   26081.09906589  .00049877  00000+0  68617-3 0  9996,2 45532  53.0497  24.6445 0004860  55.5662 304.5808 15.56788680327331
STARLINK-1350,45535,53.0742,0.0002386,15.36428807,455.0490473328082,458.3106219262945,1 45535U 20025E   26080.43563997  .00015258  00000+0  43298-3 0  9992,2 45535  53.0742 337.9680 0002386  94.2541 265.8734 15.36428807327961
STARLINK-1362,45538,53.1626,0.0001996,15.29752843,475.18232920313585,477.918720463048,1 45538U 20025H   26081.13095039 -.00166594  00000+0 -58186-2 0  9993,2 45538  53.1626  43.2077 0001996 126.8162 233.3022 15.29752843327085
STARLINK-1368,45540,53.161,0.0001214,15.30202499,474.37561183053094,476.03960390132215,1 45540U 20025K   26081.20594440  .00004747  00000+0  17228-3 0  9996,2 45540  53.1610  43.1894 0001214  81.7880 278.3259 15.30202499327086
STARLINK-1371,45542,53.0506,0.0002363,15.49185646,417.5008902138725,420.71326776560363,1 45542U 20025M   26081.14275227  .00121413  00000+0  21664-2 0  9998,2 45542  53.0506  29.8360 0002363  77.5486 282.5786 15.49185646327267
STARLINK-1372,45543,53.1606,0.0001273,15.30200621,474.3407837434888,476.0856467082849,1 45543U 20025N   26081.18271929  .00003207  00000+0  12036-3 0  9992,2 45543  53.1606  42.9943 0001273  95.7924 264.3222 15.30200621326185
STARLINK-1373,45544,53.0508,0.0004897,15.52852523,405.07890461549687,411.72564117937236,1 45544U 20025P   26081.12621139  .00048766  00000+0  77499-3 0  9992,2 45544  53.0508  29.1208 0004897  59.7347 300.4147 15.52852523327278
STARLINK-1327,45555,53.0479,0.0006748,15.56388794,393.54596159251923,402.69119612174563,1 45555U 20025AA  26081.05482497  .00057056  00000+0  79461-3 0  9991,2 45555  53.0479   6.8161 0006748 113.3137 246.8585 15.56388794327578
STARLINK-1356,45564,53.0517,0.0005922,15.46679937,422.41670389498904,430.4760524480953,1 45564U 20025AK  26081.01507382  .00101783  00000+0  19870-2 0  9992,2 45564  53.0517  15.0823 0005922  82.0106 278.1573 15.46679937327452
STARLINK-1357,45565,53.0521,0.0004318,15.58129055,390.14826986397657,395.9958860236893,1 45565U 20025AL  26080.97536650  .00102145  00000+0  13214-2 0  9996,2 45565  53.0521 338.4481 0004318 150.0053 210.1207 15.58129055327976
STARLINK-1361,45567,53.0508,0.0007558,15.49796781,412.1840396260295,422.4560524968565,1 45567U 20025AN  26081.27267497  .00064608  00000+0  11392-2 0  9998,2 45567  53.0508  13.6374 0007558  81.1823 279.0040 15.49796781327508
STARLINK-1363,45568,53.0429,0.0007043,15.79488271,327.1636666135355,336.61540999539193,1 45568U 20025AP  26080.41298032  .00164007  00000+0  87098-3 0  9994,2 45568  53.0429 339.0425 0007043 103.5617 256.6188 15.79488271327905
STARLINK-1366,45569,53.042,0.0007067,15.78561885,329.77065656277136,339.25831817501876,1 45569U 20025AQ  26081.00535917  .00127711  00000+0  71101-3 0  9996,2 45569  53.0420 336.9391 0007067 103.4563 256.7245 15.78561885327985
STARLINK-1376,45570,53.1602,0.0001583,15.30992817,471.7643712964882,473.9333934268434,1 45570U 20025AR  26081.12680797  .00017548  00000+0  58865-3 0  9996,2 45570  53.1602  20.0106 0001583 120.1018 240.0140 15.30992817327401
STARLINK-1320,45572,53.0475,0.0006003,15.70592268,353.159994323365,361.24644379036545,1 45572U 20025AT  26081.28596403  .00084536  00000+0  66989-3 0  9992,2 45572  53.0475 283.4791 0006003  91.6471 268.5234 15.70592268328783
STARLINK-1321,45573,53.0493,0.0004527,15.50444634,412.35148084687717,418.50237362659755,1 45573U 20025AU  26081.07771918  .00055141  00000+0  95321-3 0  9998,2 45573  53.0493 359.0873 0004527 105.9593 254.1914 15.50444634327380
STARLINK-1331,45578,53.0532,0.000558,15.50396309,411.7772068275435,419.3589817127486,1 45578U 20025AZ  26081.21475841  .00066733  00000+0  11520-2 0  9992,2 45578  53.0532   5.1167 0005580 127.8208 232.3306 15.50396309327625
STARLINK-1333,45580,53.1628,0.0001244,15.30198717,474.3663427547499,476.07145770272746,1 45580U 20025BB  26081.10316348  .00002399  00000+0  93096-4 0  9997,2 45580  53.1628  20.1495 0001244  89.5263 270.5881 15.30198717327403
STARLINK-1335,45581,53.1577,0.0001512,15.29370172,476.65730487905057,478.73050814517865,1 45581U 20025BC  26081.11962345  .00000785  00000+0  39507-4 0  9997,2 45581  53.1577  17.3850 0001512  83.0748 277.0424 15.29370172327438
STARLINK-1337,45582,53.0535,0.0005244,15.60144009,383.6929661289987,390.78849429244383,1 45582U 20025BD  26081.24917355  .00079438  00000+0  95602-3 0  9991,2 45582  53.0535   0.6692 0005244 128.9577 231.1903 15.60144009327678
STARLINK-1347,45586,53.0455,0.0004834,15.56647316,394.0930291778859,400.6435877100903,1 45586U 20025BH  26080.95423470  .00069477  00000+0  95584-3 0  9993,2 45586  53.0455 330.1445 0004834 115.4847 244.6665 15.56647316328078
STARLINK-1364,45589,53.05,0.0007662,15.51688767,406.59264172367966,416.9975336548541,1 45589U 20025BL  26081.06248707  .00058551  00000+0  96679-3 0  9994,2 45589  53.0500   3.7713 0007662 108.5956 251.5886 15.51688767327610
STARLINK-1365,45590,53.0526,0.0004431,15.47188435,421.94091946919434,427.96981992722067,1 45590U 20025BM  26081.07786366  .00044558  00000+0  86598-3 0  9996,2 45590  53.0526  34.4253 0004431  89.2610 270.8904 15.47188435327205
STARLINK-1443,45660,53.1355,0.0003374,15.26183232,484.91833498507367,489.55108781592753,1 45660U 20035D   26081.09590852  .00027465  00000+0  10576-2 0  9990,2 45660  53.1355   7.6485 0003374 105.0757 255.0616 15.26183232320651
STARLINK-1446,45663,53.0241,8.34e-05,15.43381031,435.5709393317402,436.7075606102353,1 45663U 20035G   26080.92220120  .00025090  00000+0  56071-3 0  9995,2 45663  53.0241 301.2476 0000834 350.7529   9.3460 15.43381031321568
STARLINK-1448,45665,53.0503,0.0007882,15.54840509,397.27169991048777,407.96087939629615,1 45665U 20035J   26081.25878223  .00063431  00000+0  93334-3 0  9991,2 45665  53.0503 352.0867 0007882 127.5772 232.5955 15.54840509320873
STARLINK-1451,45668,53.0539,0.0002072,15.1069795,532.6379908942035,535.5024095579774,1 45668U 20035M   26081.12067218  .00013656  00000+0  83111-3 0  9990,2 45668  53.0539   9.9070 0002072  77.0518 283.0704 15.10697950320620
STARLINK-1452,45669,53.0306,0.0006584,15.46966292,421.12704802782173,430.0862176435394,1 45669U 20035N   26080.96242374  .00053471  00000+0  10439-2 0  9991,2 45669  53.0306 323.1633 0006584 103.7295 256.4445 15.46966292321264
STARLINK-1453,45670,53.0464,0.0004976,15.55032948,398.68303082910643,405.43067975389295,1 45670U 20035P   26080.92651694  .00058126  00000+0  85106-3 0  9994,2 45670  53.0464 314.2585 0004976 100.9186 259.2385 15.55032948321276
STARLINK-1454,45671,53.0498,0.0008037,15.53495034,401.0780735542039,411.98374875459376,1 45671U 20035Q   26081.04771090  .00057519  00000+0  89015-3 0  9990,2 45671  53.0498 353.3496 0008037 110.3832 249.8041 15.53495034320836
STARLINK-1456,45673,53.05,0.0002682,15.51829959,409.56228111330984,413.20417976491717,1 45673U 20035S   26081.05579847  .00053246  00000+0  87686-3 0  9994,2 45673  53.0500 346.9048 0002682 156.3847 203.7286 15.51829959320946
STARLINK-1457,45674,53.0461,0.0007167,15.81990246,320.00890093327234,329.6169093272856,1 45674U 20035T   26080.93637851  .00165355  00000+0  78257-3 0  9990,2 45674  53.0461 320.9472 0007167 120.3187 239.8545 15.81990246321262
STARLINK-1458,45675,53.0532,0.0006943,15.44282938,428.75652240538875,438.21514187009507,1 45675U 20035U   26080.07210453  .00061987  00000+0  13234-2 0  9990,2 45675  53.0532   1.3931 0006943 116.8773 243.2942 15.44282938320613
STARLINK-1460,45676,53.1602,0.0001284,15.30209202,474.3076271658083,476.06756092155865,1 45676U 20035V   26081.07415634  .00002471  00000+0  95507-4 0  9998,2 45676  53.1602   7.4222 0001284  92.8423 267.2725 15.30209202320614
